{
    "links": {
        "self": "http://www.neowsapp.com/rest/v1/neo/3702916?api_key=iIulBulltgU6a56xZRHN4H3l9WmuAYTsLGpBGhQ2"
    },
    "id": "3702916",
    "neo_reference_id": "3702916",
    "name": "(2014 YA9)",
    "designation": "2014 YA9",
    "nasa_jpl_url": "http://ssd.jpl.nasa.gov/sbdb.cgi?sstr=3702916",
    "absolute_magnitude_h": 24.5,
    "estimated_diameter": {
        "kilometers": {
            "estimated_diameter_min": 0.0334622374,
            "estimated_diameter_max": 0.0748238376
        },
        "meters": {
            "estimated_diameter_min": 33.4622374455,
            "estimated_diameter_max": 74.8238376074
        },
        "miles": {
            "estimated_diameter_min": 0.0207924639,
            "estimated_diameter_max": 0.0464933628
        },
        "feet": {
            "estimated_diameter_min": 109.7842471007,
            "estimated_diameter_max": 245.4850393757
        }
    },
    "is_potentially_hazardous_asteroid": false,
    "close_approach_data": [
        {
            "close_approach_date": "2014-12-16",
            "close_approach_date_full": "2014-Dec-16 00:17",
            "epoch_date_close_approach": 1418689020000,
            "relative_velocity": {
                "kilometers_per_second": "9.4147090053",
                "kilometers_per_hour": "33892.9524192393",
                "miles_per_hour": "21059.7625740546"
            },
            "miss_distance": {
                "astronomical": "0.0115717504",
                "lunar": "4.5014109056",
                "kilometers": "1731109.212011648",
                "miles": "1075661.3852628224"
            },
            "orbiting_body": "Earth"
        }
    ],
    "orbital_data": {
        "orbit_id": "12",
        "orbit_determination_date": "2017-04-06 08:36:47",
        "first_observation_date": "2014-12-21",
        "last_observation_date": "2015-01-19",
        "data_arc_in_days": 29,
        "observations_used": 53,
        "orbit_uncertainty": "7",
        "minimum_orbit_intersection": ".011534",
        "jupiter_tisserand_invariant": "3.360",
        "epoch_osculation": "2459000.5",
        "eccentricity": ".5782597041598242",
        "semi_major_axis": "2.275922778037313",
        "inclination": "5.609799975818468",
        "ascending_node_longitude": "90.28790805869414",
        "orbital_period": "1254.107342192839",
        "perihelion_distance": ".9598483457188511",
        "perihelion_argument": "330.6563791270315",
        "aphelion_distance": "3.591997210355775",
        "perihelion_time": "2459495.303103644124",
        "mean_anomaly": "217.9634204194824",
        "mean_motion": ".2870567677010253",
        "equinox": "J2000",
        "orbit_class": {
            "orbit_class_type": "APO",
            "orbit_class_description": "Near-Earth asteroid orbits which cross the Earth’s orbit similar to that of 1862 Apollo",
            "orbit_class_range": "a (semi-major axis) > 1.0 AU; q (perihelion) < 1.017 AU"
        }
    },
    "is_sentry_object": false
}